db.customer.insert({"fname":"abdulaziz", "mname":"", "lname":"kodirov", "address":"1234 W Street", "city":"Meridian", "state":"ID", "zip":"12345", "phone":"(123)456-7890", "entrant":"abdulazizk"})

db.customer.insert({"fname":"Molly", "mname":"", "lname":"Stevenson", "address":"2312 N Winterfell", "city":"Waukisha", "state":"WI", "zip":"53189", "phone":"(203)256-7290", "entrant":"abdulazizk"})

db.customer.insert({"fname":"Brandon", "mname":"S", "lname":"Stark", "address":"2312 S Old Town", "city":"Appleton", "state":"WI", "zip":"54911", "phone":"(203)451-1190", "entrant":"abdulazizk"})

db.customer.insert({"fname":"Steven", "mname":"J", "lname":"Goodman", "address":"4212 N Champions Ave", "city":"Kenosha", "state":"WI", "zip":"54483", "phone":"(903)756-7110", "entrant":"abdulazizk"})

db.customer.insert({"fname":"Arya", "mname":"", "lname":"Stark", "address":"2142 N River Ave", "city":"Riverside", "state":"CA", "zip":"92507", "phone":"(244)121-2451", "entrant":"abdulazizk"})

db.customer.insert({"fname":"Rickon", "mname":"", "lname":"Jhonson", "address":"4612 W Deadman", "city":"Winterfell", "state":"WI", "zip":"40421", "phone":"(200)121-3212", "entrant":"abdulazizk"})

db.customer.insert({"fname":"Jhonny", "mname":"", "lname":"Sugarman", "address":"3475 N Example Way", "city":"Meridian", "state":"ID", "zip":"83646", "phone":"(208)900-7887", "entrant":"abdulazizk"})

db.customer.insert({"fname":"Khalid", "mname":"D", "lname":"Davronov", "address":"4536 S Trushwi", "city":"Hollywood", "state":"CA", "zip":"90762", "phone":"(911)213-5212", "entrant":"abdulazizk"})

db.customer.insert({"fname":"Mohizoda", "mname":"", "lname":"Kodirova", "address":"3721 N Pankratz Way", "city":"Meridian", "state":"ID", "zip":"83642", "phone":"(208)231-4521", "entrant":"abdulazizk"})

db.customer.insert({"fname":"Jamshid", "mname":"", "lname":"Kodirov", "address":"8978 E Albertinkatu Ave W", "city":"Shawn Town", "state":"IL", "zip":"60173", "phone":"(224)456-3280", "entrant":"abdulazizk"})
db.customer.insert({fname:"Alyse", mname:"Michelle", lname:"Clements", address:"1245 W Front Street", city:"Eagle", state:"ID", zip:"83616", phone:"208-123-4567", entrant:"AlyseC"});
db.customer.insert({fname:"Joe", mname:"Steven", lname:"Johnson", address:"1897 S Park Lane", city:"Boise", state:"ID", zip:"83713", phone:"208-998-5897", entrant:"AlyseC"});
db.customer.insert({fname:"David", mname:"John", lname:"Anderson", address:"1569 E Broadway Avenue", city:"Boise", state:"ID", zip:"83713", phone:"208-112-3698", entrant:"AlyseC"});
db.customer.insert({fname:"Jessica", mname:"Ann", lname:"Clark", address:"2002 S Chadford Dr", city:"Meridian", state:"ID", zip:"83646", phone:"208-995-0004", entrant:"AlyseC"});
db.customer.insert({fname:"Hannah", mname:"Marie", lname:"Davidson", address:"2154 N Cherry Lane", city:"Meridian", state:"ID", zip:"83646", phone:"208-789-5217", entrant:"AlyseC"});
db.customer.insert({fname:"Tyler", mname:"Joe", lname:"Fisher", address:"2089 W Elmer Street", city:"Eagle", state:"ID", zip:"83616", phone:"208-221-7658", entrant:"AlyseC"});
db.customer.insert({fname:"Brittany", mname:"Julie", lname:"Jones", address:"9856 5th Street", city:"Boise", state:"ID", zip:"83713", phone:"208-785-5217", entrant:"AlyseC"});
db.customer.insert({fname:"Tony", mname:"David", lname:"Thompson", address:"1172 E Orchard Avenue", city:"Boise", state:"ID", zip:"83713", phone:"208-879-0012", entrant:"AlyseC"});
db.customer.insert({fname:"James", mname:"Michael", lname:"Little", address:"2789 S Weston Dr", city:"Eagle", state:"ID", zip:"83616", phone:"208-877-0054", entrant:"AlyseC"});
db.customer.insert({fname:"Brooke", mname:"Julianne", lname:"Kelly", address:"7122 N Hempstead Way", city:"Meridian", state:"ID", zip:"83646", phone:"208-999-8700", entrant:"AlyseC"});
db.customer.insert([{fname:"Chris", mname:"Ted", lname:"Boil", address:"134 Actor St.", city:"Boise", state:"ID", zip:"83713", phone:"2081348765", entrant:"BrielleL"},
{fname:"Bob", mname:"Dan", lname:"Cruz", address:"1678 Homie Dr.", city:"Boise", state:"ID", zip:"83713",phone:"2086789834", entrant:"BrielleL"},
{fname:"Matt", mname:"Ted", lname:"Taylor", address:"189 Main St.", city:"Boise", state:"ID", zip:"83713", phone:"2081329765", entrant:"BrielleL"},
{fname:"Trevor", mname:"Lee", lname:"Smith", address:"5678 Party St.", city:"Boise", state:"ID", zip:"83713", phone:"2083249834", entrant:"BrielleL"},
{fname:"Veronica", mname:"Susan", lname:"Jones", address:"134 Ocean Ave.", city:"Boise", state:"ID", zip:"83713", phone:"2081348666", entrant:"BrielleL"},
{fname:"Timmy", mname:"Rob", lname:"Wilson", address:"1234 Bank Dr.", city:"Boise", state:"ID", zip:"83713", phone:"2086689834", entrant:"BrielleL"},
{fname:"Derek", mname:"Billy", lname:"Walker", address:"7563 Sticker St.", city:"Boise", state:"ID", zip:"83713", phone:"2081349900", entrant:"BrielleL"},
{fname:"John", mname:"Tim", lname:"Stevenson", address:"2257 Elmspring Dr.", city:"Boise", state:"ID",zip:"83713", phone:"2086789379", entrant:"BrielleL"},
{fname:"Betty", mname:"Rose", lname:"Simpson", address:"1843 Edna St.", city:"Boise", state:"ID",zip:"83713", phone:"2084458965", entrant:"BrielleL"},
{fname:"Willy", mname:"Quinn", lname:"Daniels", address:"3379 Juliet Dr.", city:"Boise", state:"ID", zip:"83713", phone:"2084389224", entrant:"BrielleL"}]);
db.customer.insert([{"fname":"Jimmy", "mname":"Lemon", "lname":"Scott", "address":"6569 Cherry Lane", "city":"Boise", "state":"ID", "zip":"83617", "phone":"2084517532", "entrant":"BrockD"}, 
{"fname":"Mike", "mname":"Smithers", "lname":"Smith", "address":"3244 Smith Street", "city":"New Haven", "state":"CT", "zip":"06501", "phone":"2089065248", "entrant":"BrockD"},
{"fname":"Tim", "mname":"Alfred", "lname":"Jefferson", "address":"322 Maple Grove", "city":"New York City", "state":"NY", "zip":"10001", "phone":"2089760021", "entrant":"BrockD"},
{"fname":"Tyrone", "mname":"Alexander", "lname":"Adams", "address":"4473 West Lake Drive", "city":"New Braunfels", "state":"TX", "zip":"78130", "phone":"2089268431", "entrant":"BrockD"},
{"fname":"Don", "mname":"Fredrick", "lname":"Hickman", "address":"224 South Main Street", "city":"Thousand Oaks","state":"CA", "zip":"91319", "phone":"2088832134", "entrant":"BrockD"},
{"fname":"Jim", "mname":"Blake", "lname":"Jones", "address":"374 East Main Street", "city":"Detroit", "state":"MI", "zip":"48127", "phone":"2088850909", "entrant":"BrockD"},
{"fname":"Stacy", "mname":"Ann", "lname":"Mcgregor", "address":"894 Shore Drive", "city":"South Beach", "state":"FL", "zip":"33139", "phone":"2081234312", "entrant":"BrockD"},
{"fname":"Kate", "mname":"Lizzy", "lname":"Tate", "address":"7332 North Emerald Street", "city":"Denver", "state":"CO", "zip":"80014", "phone":"2086654712", "entrant":"BrockD"},
{"fname":"Susan", "mname":"Larry", "lname":"Howe", "address":"5418 East South Street", "city":"Phoenix", "state":"AZ", "zip":"85001", "phone":"2087732143", "entrant":"BrockD"},
{"fname":"Hollie", "mname":"Dom", "lname":"Rodregiez", "address":"4437 West Chamberline Road", "city":"Washinton DC", "state":"DC", "zip":"20001", "phone":"2082535543", "entrant":"BrockD"}]);
db.customer.insert([  
{
    "fname": "Debby",
    "mname": "Lynn",
    "lname": "McHugh",
    "address": "4182 N. Westwood Rd.",
    "city": "Boise",
    "state": "ID",
    "zip": "83719",
    "phone": "208-382-3824",
    "entrant": "Bryan H.",
  },
  {
    "fname": "Robert",
    "mname": "B.",
    "lname": "Landers",
    "address": "4057 S. Hill Crest Ave.",
    "city": "Meridian",
    "state": "ID",
    "zip": "83646",
    "phone": "208-581-7856",
    "entrant": "Bryan H.",
  },
  {
    "fname": "Madison",
    "mname": "A.",
    "lname": "Denver",
    "address": "6282 N. Eastwood St.",
    "city": "Boise",
    "state": "ID",
    "zip": "83715",
    "phone": "208-392-3754",
    "entrant": "Bryan H.",
  },
  {
    "fname": "Ryan",
    "mname": "Taylor",
    "lname": "Laywood",
    "address": "7671 W. Clover Rd.",
    "city": "Nampa",
    "state": "ID",
    "zip": "83652",
    "phone": "208-402-9278",
    "entrant": "Bryan H.",
  },
  {
    "fname": "Sarah",
    "mname": "P.",
    "lname": "Phillps",
    "address": "190 E. North Road Ave.",
    "city": "Boise",
    "state": "ID",
    "zip": "83708",
    "phone": "208-742-0284",
    "entrant": "Bryan H.",
  },
  {
    "fname": "Sasha",
    "mname": "Erin",
    "lname": "Willams",
    "address": "9472 W. Main St.",
    "city": "Boise",
    "state": "ID",
    "zip": "83707",
    "phone": "208-942-4892",
    "entrant": "Bryan H.",
  },
  {
    "fname": "Jeff",
    "mname": "W.",
    "lname": "Jones",
    "address": "823 S. Tigo Rd.",
    "city": "Boise",
    "state": "ID",
    "zip": "83714",
    "phone": "208-695-4910",
    "entrant": "Bryan H.",
  },
  {
    "fname": "David",
    "mname": "Roger",
    "lname": "Price",
    "address": "927 E. Main Rd.",
    "city": "Meridian",
    "state": "ID",
    "zip": "83680",
    "phone": "208-923-2949",
    "entrant": "Bryan H.",
  },
  {
    "fname": "Ray",
    "mname": "Thomas",
    "lname": "Trent",
    "address": "3920 S. Ocean Blvd.",
    "city": "Boise",
    "state": "ID",
    "zip": "83711",
    "phone": "208-637-8478",
    "entrant": "Bryan H.",
  },
  {
    "fname": "Sage",
    "mname": "M.",
    "lname": "Fuller",
    "address": "2467 N. Wood Rd.",
    "city": "Boise",
    "state": "ID",
    "zip": "83756",
    "phone": "208-829-4848",
    "entrant": "Bryan H.",
  }
]);
db.customer.insert({fname:"Kado", mname:"", lname:"Tagashiki", address:"3556 Merlinus Way", city:"Boise", state:"ID", zip:"83701", phone:"208-991-7761", entrant:"Clayton W"});
db.customer.insert({fname:"Takumi", mname:"", lname:"Shuuya", address:"4562 Holocron Drive", city:"Boise", state:"ID", zip:"83701", phone:"", entrant:"Clayton W"});
db.customer.insert({fname:"Kano", mname:"", lname:"Takahashi", address:"3547 Merlinus Way", city:"Boise", state:"ID", zip:"83701", phone:"208-987-7231", entrant:"Clayton W"});
db.customer.insert({fname:"Umu", mname:"", lname:"Romania", address:"2467 Regulus Way", city:"Boise", state:"ID", zip:"83701", phone:"2208-782-7712", entrant:"Clayton W"});
db.customer.insert({fname:"Zasshu", mname:"", lname:"Gilgamein", address:"3657 Magnus Way", city:"Boise", state:"ID", zip:"83701", phone:"208-981-7761", entrant:"Clayton W"});
db.customer.insert({fname:"Shirou", mname:"", lname:"Emiya", address:"4356 Saurius Way", city:"Boise", state:"ID", zip:"83701", phone:"208-777-7770", entrant:"Clayton W"});
db.customer.insert({fname:"Kau", mname:"Kana", lname:"Tagarin", address:"3566 Merlinus Way", city:"Boise", state:"ID", zip:"83701", phone:"208-999-0061", entrant:"Clayton W"});
db.customer.insert({fname:"Kassius", mname:"", lname:"Grimmson", address:"2470 Regulus Way", city:"Boise", state:"ID", zip:"83701", phone:"208-976-7211", entrant:"Clayton W"});
db.customer.insert({fname:"Arthur", mname:"", lname:"Ucures", address:"3678 Magnus Way", city:"Boise", state:"ID", zip:"83701", phone:"208-223-7761", entrant:"Clayton W"});
db.customer.insert({fname:"Kaleid", mname:"", lname:"Illya", address:"3426 Liner Road", city:"Boise", state:"ID", zip:"83701", phone:"208-291-5361", entrant:"Clayton W"});

db.customer.insert(
	[{
		fname:'John', 
		lname:'Williams',
		address:'2957 N. Courtyard Way',
		city:'Meridian',
		state:'ID',
		zip:'83646',
		phone:'208-769-2943',
		entrant:'ethana'
	},
	{
		fname:'Sarah', 
		lname:'Mackenzie',
		address:'4822 Eagle Rd.',
		city:'Meridian',
		state:'ID',
		zip:'83642',
		phone:'208-769-2943',
		entrant:'ethana'
	},
	{
		fname:'Nick', 
		mname:'Edward',
		lname:'Gamber',
		address:'972 E. Horse Dr.',
		city:'Boise',
		state:'ID',
		zip:'83701',
		phone:'208-899-3856',
		entrant:'ethana'
	},
	{
		fname:'Jordan', 
		mname:'Anne',
		lname:'Leavit',
		address:'2208 E. Cuber Ct.',
		city:'Boise',
		state:'ID',
		zip:'83701',
		phone:'208-834-7452',
		entrant:'ethana'
	},
	{
		fname:'Michael', 
		mname:'Nick',
		lname:'Ford',
		address:'3962 S. Ontario St.',
		city:'Meridian',
		state:'ID',
		zip:'83646',
		phone:'',
		entrant:'ethana'
	},
	{
		fname:'Hannah', 
		lname:'Smith',
		address:'3845 W. Susan St.',
		city:'Meridian',
		state:'ID',
		zip:'83642',
		phone:'208-396-2259',
		entrant:'ethana'
	},
	{
		fname:'Carter', 
		mname:'Samuel',
		lname:'Licen',
		address:'9682 E. Armadillo Way',
		city:'Meridian',
		state:'ID',
		zip:'83646',
		phone:'208-195-8235',
		entrant:'ethana'
	},
	{
		fname:'April', 
		mname:'Shirly',
		lname:'Milford',
		address:'59 E. Horse Dr.',
		city:'Meridian',
		state:'ID',
		zip:'83701',
		phone:'208-956-2386',
		entrant:'ethana'
	},
	{
		fname:'Daniel', 
		lname:'Mulligan',
		address:'1654 S. Lexington Dr.',
		city:'Meridian',
		state:'ID',
		zip:'83642',
		phone:'208-387-3977',
		entrant:'ethana'
	},
	{
		fname:'Nicole', 
		lname:'Nickson',
		address:'1254 W. Kirkland Rd.',
		city:'Meridian',
		state:'ID',
		zip:'83642',
		phone:'208-633-2583',
		entrant:'ethana'
	}]
);

db.customer.insert({fname:"Jon", mname:"D", lname:"Coe", address:"7152 N Street", city:"Meridian", state:"ID", zip:"83642", phone:"(208) 656-7893", entrant:"Gavin B"});
db.customer.insert({fname:"Henn", mname:"J", lname:"Doe", address:"3333 W Street", city:"Meridian", state:"ID", zip:"83642", phone:"(208) 956-0981", entrant:"Gavin B"});
db.customer.insert({fname:"Dary", mname:"M", lname:"Ball", address:"3513 W Franklin Rd", city:"Boise", state:"ID", zip:"83709", phone:"(208) 358-9673", entrant:"Gavin B"});
db.customer.insert({fname:"Carl", lname:"Jill", address:"7345 Monarch Sky Ln", city:"Meridian", state:"ID", zip:"83646", phone:"(208) 601-8202", entrant:"Gavin B"});
db.customer.insert({fname:"Merk", mname:"M", lname:"Donald", address:"321 N Milwaukee St", city:"Boise", state:"ID", zip:"83704", phone:"(208) 978-4403", entrant:"Gavin B"});
db.customer.insert({fname:"Fen", mname:"N", lname:"Hob", address:"7823 E Fairview Ave", city:"Meridian", state:"ID", zip:"83642", phone:"(208) 229-8620", entrant:"Gavin B"});
db.customer.insert({fname:"Bart", mname:"D", lname:"Hoagland", address:"6723 W Berry Ln", city:"Meridian", state:"ID", zip:"83642", phone:"(208) 688-4453", entrant:"Gavin B"});
db.customer.insert({fname:"Simpson", mname:"A", lname:"F", address:"1634 E Fairview Ave", city:"Meridian", state:"ID", zip:"83642", phone:"(208) 573-7907", entrant:"Gavin B"});
db.customer.insert({fname:"Homer", mname:"M", lname:"Peter", address:"745 W Overland Rd", city:"Meridian", state:"ID", zip:"83642", phone:"(208) 417-6903", entrant:"Gavin B"});
db.customer.insert({fname:"Marge", mname:"B", lname:"Simpson", address:"8484 N Ten Mile Rd", city:"Meridian", state:"ID", zip:"83646", phone:"(208) 382-3041", entrant:"Gavin B"});


db.customer.insert({fname:"Michael", lname:"Celeverdon", mname:"Ben", address:"124 W apgar street", city:"Meridian", state:"ID", zip:"83646", phone:"2085595656", entrant:"HunterF"});

db.customer.insert({fname:"Jacob", lname:"Rountree", mname:"David", address:"2559 E Bacall Street", city:"Meridian", state:"ID", zip:"83646", phone:"2087876251", entrant:"HunterF"});

db.customer.insert({fname:"Connor", lname:"Godfrey", mname:"Nick", address:"1245 S Linder rd", city:"Meridian", state:"ID", zip:"83642", phone:"208458412", entrant:"HunterF"});

db.customer.insert({fname:"John", lname:"Stutson", mname:"Jack", address:"2356 N Franklin rd", city:"Eagle", state:"ID", zip:"83646", phone:"2084589216", entrant:"HunterF"});

db.customer.insert({fname:"Joe", lname:"Von", mname:"Stueben", address:"2031 E Hill street", city:"McCall", state:"ID", zip:"83245", phone:"2083264589", entrant:"HunterF"});

db.customer.insert({fname:"Joan", lname:"Joseph", mname:"Benji", address:"5489 E apgar street", city:"Meridian", state:"ID", zip:"83646", phone:"208326481", entrant:"HunterF"});

db.customer.insert({fname:"Cornell", lname:"Ivan", mname:"Steve", address:"2105 S Colonial street", city:"Nampa", state:"ID", zip:"83653", phone:"2082156594", entrant:"HunterF"});

db.customer.insert({fname:"Steven", lname:"Buchman", mname:"Allen", address:"6598 N Bunker rd", city:"Nampa", state:"ID", zip:"83653", phone:"2088602564", entrant:"HunterF"});

db.customer.insert({fname:"Ryan", lname:"Durbin", mname:"Grayson", address:"2305 W Country rd", city:"Kuna", state:"ID", zip:"8352", phone:"2083265014", entrant:"HunterF"});

db.customer.insert({fname:"Jon", lname:"Paul", mname:"Jones", address:"2359 S seaward street", city:"McCall", state:"ID", zip:"83245", phone:"2082159652", entrant:"HunterF"});


db.customer.insert([

	{"fname": "John", "mname": "Winston", "lname": "Maximus" ,"address":"123 West Side St" , "city": "Preston", "state":"ID", "zip":"83646", "phone":"2088521832", "entrant":"JohnH"},
	{"fname": "Larry", "mname": "Max", "lname": "Jefferson" ,"address":"292 N Side St" , "city": "Lewiston", "state":"ID", "zip":"81382", "phone":"2089308293", "entrant":"JohnH"},
	{"fname": "Jeffrey", "mname": "Lewis", "lname": "Johnson" ,"address":"98302 W Longterm Dr" , "city": "Stanley", "state":"ID", "zip":"81029", "phone":"2089203981", "entrant":"JohnH"},
	{"fname": "Julie", "mname": "Terry", "lname": "Larsen" ,"address":"8382 N Trail Creek Dr" , "city": "Boise", "state":"ID", "zip":"38512", "phone":"2089019823", "entrant":"JohnH"},
	{"fname": "Michael", "mname": "Richard", "lname": "Harrison" ,"address":"21932 S Otherside Wy" , "city": "Boise", "state":"ID", "zip":"38512", "phone":"2089019823", "entrant":"JohnH"},
	{"fname": "Brooklynn", "mname": "Helga", "lname": "Sokolov" ,"address":"21932 S Otherside Wy" , "city": "Boise", "state":"ID", "zip":"38512", "phone":"2089019823", "entrant":"JohnH"},
	{"fname": "John", "mname": "John", "lname": "Smith" ,"address":"21932 S Otherside Wy" , "city": "Boise", "state":"ID", "zip":"38512", "phone":"2089019823", "entrant":"JohnH"},
	{"fname": "Steve", "mname": "Franklin", "lname": "Jobs" ,"address":"21932 S Otherside Wy" , "city": "Boise", "state":"ID", "zip":"38512", "phone":"2089019823", "entrant":"JohnH"},
	{"fname": "Brielle", "mname": "Mildred", "lname": "Lewis" ,"address":"21932 S Otherside Wy" , "city": "Boise", "state":"ID", "zip":"38512", "phone":"2089019823", "entrant":"JohnH"},
	{"fname": "Larry", "mname": "Helga", "lname": "Maximus" ,"address":"21932 S Otherside Wy" , "city": "Boise", "state":"ID", "zip":"38512", "phone":"2089019823", "entrant":"JohnH"}
]);




db.customer.insert([
    {
        "fname":"Roger",
        "mname":"P",
        "lname":"Smith",
        "address":"578 N South St.",
        "city":"Boise",
        "state":"ID",
        "zip":"83709",
        "phone":"208-766-4221",
        "entrant":"Joseph M"
    },
    {
        "fname":"Thomas",
        "mname":"L",
        "lname":"Peter",
        "address":"454 Ground Dr.",
        "city":"Boise",
        "state":"ID",
        "zip":"83701",
        "phone":"2086578345",
        "entrant":"Joseph M"
    },
    {
        "fname":"Gabe",
        "mname":"L",
        "lname":"Newell",
        "address":"327 Steam Ave.",
        "city":"Seattle",
        "state":"WA",
        "zip":"98126",
        "phone":"425-889-9642",
        "entrant":"Joseph M"
    },
    {
        "fname":"Perry",
        "lname":"Karlsen",
        "address":"12400 W McMillan",
        "city":"Boise",
        "state":"ID",
        "zip":"83713",
        "phone":"208-855-4500",
        "entrant":"Joseph M"
    },
    {
        "fname":"Cash",
        "lname":"Nida",
        "address":"12400 W McMillan",
        "city":"Boise",
        "state":"ID",
        "zip":"83713",
        "phone":"208-855-4500",
        "entrant":"Joseph M"
    },
    {
        "fname":"George",
        "mname":"Peter",
        "lname":"Albertson",
        "address":"674 E Pond St.",
        "city":"Boise",
        "state":"ID",
        "zip":"83709",
        "phone":"2087664323",
        "entrant":"Joseph M"
    },
    {
        "fname":"Jennifer",
        "mname":"Lee",
        "lname":"Young",
        "address":"433 N West Ave.",
        "city":"Boise",
        "state":"ID",
        "zip":"83701",
        "phone":"208-566-6747",
        "entrant":"Joseph M"
    },
    {
        "fname":"Ian",
        "mname":"Pell",
        "lname":"West",
        "address":"784 Westwoods St.",
        "city":"Boise",
        "state":"ID",
        "zip":"83705",
        "phone":"(208)032-6707",
        "entrant":"Joseph M"
    },
    {
        "fname":"Ron",
        "mname":"Tristan",
        "lname":"Wilson",
        "address":"9476 N Yorkshire Way",
        "city":"New York City",
        "state":"NY",
        "zip":"10029",
        "phone":"7186054435",
        "entrant":"Joseph M"
    },
    {
        "fname":"Lauren",
        "mname":"Honduras",
        "lname":"Williamson",
        "address":"457 Polermy Ave.",
        "city":"Boise",
        "state":"ID",
        "zip":"84711",
        "phone":"2085574737",
        "entrant":"Joseph M"
    }
]);




db.customer.insert({fname:"Sam", mname:"D", lname:"Doe", address:"1234 W Street", city:"Meridian", state:"ID", zip:"83642", phone:"(208) 456-7890", entrant:"Justin F"});
db.customer.insert({fname:"Jennifer", mname:"J", lname:"Doe", address:"1234 W Street", city:"Meridian", state:"ID", zip:"83642", phone:"(208) 456-0987", entrant:"Justin F"});
db.customer.insert({fname:"Mary", mname:"M", lname:"Lamb", address:"8363 W Franklin Rd", city:"Boise", state:"ID", zip:"83709", phone:"(208) 658-9670", entrant:"Justin F"});
db.customer.insert({fname:"Jay", lname:"Smith", address:"3597 E Monarch Sky Ln", city:"Meridian", state:"ID", zip:"83646", phone:"(208) 501-8207", entrant:"Justin F"});
db.customer.insert({fname:"Mark", mname:"M", lname:"Mcgovern", address:"350 N Milwaukee St", city:"Boise", state:"ID", zip:"83704", phone:"(208) 378-4400", entrant:"Justin F"});
db.customer.insert({fname:"Alex", mname:"N", lname:"Hobson", address:"1701 E Fairview Ave", city:"Meridian", state:"ID", zip:"83642", phone:"(208) 629-8624", entrant:"Justin F"});
db.customer.insert({fname:"Steven", mname:"D", lname:"Web", address:"1326 W Cherry Ln", city:"Meridian", state:"ID", zip:"83642", phone:"(208) 888-4451", entrant:"Justin F"});
db.customer.insert({fname:"Dan", mname:"A", lname:"Booth", address:"4051 E Fairview Ave", city:"Meridian", state:"ID", zip:"83642", phone:"(208) 373-7908", entrant:"Justin F"});
db.customer.insert({fname:"Anna", mname:"M", lname:"Dew", address:"795 W Overland Rd", city:"Meridian", state:"ID", zip:"83642", phone:"(208) 917-6902", entrant:"Justin F"});
db.customer.insert({fname:"Zach", mname:"B", lname:"Book", address:"5001 N Ten Mile Rd", city:"Meridian", state:"ID", zip:"83646", phone:"(208) 982-3045", entrant:"Justin F"});
db.customer.insert([
{
fname: "John",
mname: "Winston",
lname: "Maximus",
address: "123 West Side St",
city: "Preston",
state: "ID",
zip: "83263",
phone: "2088521832",
entrant: "MichaelC"
},
{
fname: "Larry",
mname: "Max",
lname: "Jefferson",
address: "292 N Side St ",
city: "Lewiston",
state: "ID",
zip: "83501",
phone: "2089308293",
entrant: "MichaelC"
},
{
fname: "Jeffrey",
mname: "Lewis",
lname: "Johnson",
address: "98302 W Longterm Dr",
city: "Stanley",
state: "ID",
zip: "83278",
phone: "2089203981",
entrant: "MichaelC"
},
{
fname: "Julie",
mname: "Terry",
lname: "Larsen",
address: "8382 N Trail Creek Dr",
city: "Boise",
state: "ID",
zip: "83713",
phone: "2089019823",
entrant: "MichaelC"
},
{
fname: "Michael",
mname: "Richard",
lname: "Harrison",
address: "21932 S Otherside Wy",
city: "Seattle",
state: "WA",
zip: "98101",
phone: "4282432845",
entrant: "MichaelC"
},
{
fname: "Brooklynn",
mname: "Helga",
lname: "Sokolov",
address: "2 Siberia St",
city: "Siberia",
state: "IN",
zip: "47515",
phone: "8120812821",
entrant: "MichaelC"
},
{
fname: "John",
mname: "John",
lname: "Smith",
address: "10 Normal Ave",
city: "Normal",
state: "IL",
zip: "61702",
phone: "3092810255",
entrant: "MichaelC"
},
{
fname: "Steve",
mname: "Franklin",
lname: "Jobs",
address: "12 Sacramento Pl",
city: "Sacramento",
state: "CA",
zip: "94203",
phone: "9168334258",
entrant: "MichaelC"
},
{
fname: "Bielle",
mname: "Mildred",
lname: "Lewis",
address: "12400 W McMillan Rd",
city: "Boise",
state: "ID",
zip: "83713",
phone: "2083812852",
entrant: "MichaelC"
},
{
fname: "John",
mname: "Ulysses",
lname: "Phillips",
address: "529 E Star Rd",
city: "Eagle",
state: "ID",
zip: "83616",
phone: "2084382187",
entrant: "MichaelC"
}
]);
  db.customer.insert({
    "fname": "Billy",
    "mname": "Carl",
    "lname": "Bob",
    "address": "1521 S Crossward RD",
    "city": "Eagle",
    "state": "ID",
    "zip": "83616",
    "phone": "208-602-0987",
    "entrant": "Tanner H",
  });
  db.customer.insert({
    "fname": "Jimmy",
    "mname": "B",
    "lname": "Neutron",
    "address": "1304 W Charles Way",
    "city": "Boise",
    "state": "ID",
    "zip": "83646",
    "phone": "208-655-9365",
    "entrant": "Tanner H",
  });
   db.customer.insert({
    "fname": "Mason",
    "mname": "D",
    "lname": "Charles",
    "address": "8787 W Myham St",
    "city": "Boise",
    "state": "ID",
    "zip": "83715",
    "phone": "208-322-6969",
    "entrant": "Tanner H",
  });
  db.customer.insert({
    "fname": "Carl",
    "mname": "Taylor",
    "lname": "Azuz",
    "address": "7771 W. Clover Rd",
    "city": "Boise",
    "state": "ID",
    "zip": "83652",
    "phone": "208-402-3965",
    "entrant": "Tanner H",
  });
   db.customer.insert({
    "fname": "Lauren",
    "mname": "P",
    "lname": "Phillps",
    "address": "420 E Wayward Rd",
    "city": "Boise",
    "state": "ID",
    "zip": "83717",
    "phone": "208-638-8974",
    "entrant": "Tanner H",
  });
   db.customer.insert({
    "fname": "Sasha",
    "mname": "Erin",
    "lname": "Willams",
    "address": "9472 W. Main St",
    "city": "Boise",
    "state": "ID",
    "zip": "83707",
    "phone": "208-942-4892",
    "entrant": "Tanner H",
  });
   db.customer.insert({
    "fname": "Jeff",
    "mname": "W",
    "lname": "Dunn",
    "address": "803 Tango Rd",
    "city": "Caldwell",
    "state": "ID",
    "zip": "83747",
    "phone": "208-882-5689",
    "entrant": "Tanner H",
  });
  db.customer.insert({
    "fname": "Roger",
    "mname": "That",
    "lname": "Helper",
    "address": "589 Main Rd",
    "city": "Eagle",
    "state": "ID",
    "zip": "83616",
    "phone": "208-475-3365",
    "entrant": "Tanner H",
  });
  db.customer.insert({
    "fname": "Trent",
    "mname": "G",
    "lname": "Alamba",
    "address": "420 Overland Rd",
    "city": "Boise",
    "state": "ID",
    "zip": "83711",
    "phone": "208-745-6532",
    "entrant": "Tanner H",
  });
  db.customer.insert({
    "fname": "Gage",
    "mname": "Miller",
    "lname": "Jones",
    "address": "4587 Westward Way",
    "city": "Nampa",
    "state": "ID",
    "zip": "4632",
    "phone": "208-820-5656",
    "entrant": "Tanner H",
  });
db.customer.insert({fname:"Frank",mname:"Ron",lname:"Fitzgerald",address:"43478 N. 10th St.",city:"Los Angeles",state:"CA",zip:"90005",phone:"323-554-3409",entrant:"zacharys"});
db.customer.insert({fname:"Ron",mname:"Alexander",lname:"Thomson",address:"45338 N. Rockchester Ave.",city:"Los Angeles",state:"CA",zip:"90005",phone:"323-237-3568",entrant:"zacharys"});
db.customer.insert({fname:"Juan",mname:"David",lname:"Igelsia",address:"23456 W. Tower St.",city:"New York City",state:"NY",zip:"10020",phone:"858-786-9090",entrant:"zacharys"});
db.customer.insert({fname:"Mike",mname:"Harry",lname:"Johnson",address:"45634 W. Tower St.",city:"New York City",state:"NY",zip:"10020",phone:"718-713-9890",entrant:"zacharys"});
db.customer.insert({fname:"Richard",mname:"Harry",lname:"Johnson",address:"45634 W. Tower St.",city:"New York City",state:"NY",zip:"10020",phone:"718-786-9090",entrant:"zacharys"});
db.customer.insert({fname:"Zachary",mname:"David",lname:"Scher",address:"12457 W. Chinden Rd.",city:"Boise",state:"ID",zip:"83713",phone:"208-647-8346",entrant:"zacharys" });
db.customer.insert({fname:"Thomas",mname:"Ron",lname:"Fitzgerald",address:"45678 N. Seplevda Ave.",city:"Los Angeles",state:"CA",zip:"90005",phone:"323-567-3478",entrant:"zacharys" });
db.customer.insert({fname:"Mina",mname:"Sabine",lname:"Luna",address:"45634 W. Sunset Dr.",city:"San Diego",state:"CA",zip:"22434",phone:"858-786-9090",entrant:"zacharys" });
db.customer.insert({fname:"Sabina",mname:"Herminie",lname:"Luna",address:"45634 W. Sunset Dr.",city:"San Diego",state:"CA",zip:"22434",phone:"858-345-3490",entrant:"zacharys" });
db.customer.insert({fname:"John",mname:"Gerald",lname:"Smith",address:"67489 W. London St.",city:"San Diego",state:"CA",zip:"22434",phone:"858-345-6754",entrant:"zacharys" });
